{"type": "FeatureCollection", "features": [ {"type": "Feature", "properties": {"norad_id": 31430, "name": "FENGYUN 1C DEB", "group": "fengyun-1c-debris", "lat": -79.38930964554716, "lon": 172.41715114387065, "alt_km": 829.680058890619, "timestamp": "2025-12-10T14:53:37.373616+00:00", "meta": {"OBJECT_NAME": "FENGYUN 1C DEB", "OBJECT_ID": "1999-025BTS", "EPOCH": "2025-12-09T10:46:57.514656", "MEAN_MOTION": 14.25582156, "ECCENTRICITY": 0.00270499, "INCLINATION": 98.7435, "RA_OF_ASC_NODE": 46.4841, "ARG_OF_PERICENTER": 52.0867, "MEAN_ANOMALY": 324.2396, "EPHEMERIS_TYPE": 0, "CLASSIFICATION_TYPE": "U", "NORAD_CAT_ID": 31430, "ELEMENT_SET_NO": 999, "REV_AT_EPOCH": 96071, "BSTAR": 0.0014961154, "MEAN_MOTION_DOT": 3.512e-05, "MEAN_MOTION_DDOT": 0}, "tle": {"line1": "1 31430U 99025BTS 25343.44927679  .00003512  00000+0  14961-2 0  9994", "line2": "2 31430  98.7435  46.4841 0027049  52.0867 324.2396 14.25582156960717"}}, "geometry": {"type": "Point", "coordinates": [172.41715114387065, -79.38930964554716]}}, {"type": "Feature", "properties": {"norad_id": 31431, "name": "FENGYUN 1C DEB", "group": "fengyun-1c-debris", "lat": -33.47929081389791, "lon": -121.3728019129516, "alt_km": 957.0691381427378, "timestamp": "2025-12-10T14:53:37.373626+00:00", "meta": {"OBJECT_NAME": "FENGYUN 1C DEB", "OBJECT_ID": "1999-025BTT", "EPOCH": "2025-12-07T15:10:24.373056", "MEAN_MOTION": 14.03044754, "ECCENTRICITY": 0.01330657, "INCLINATION": 98.5386, "RA_OF_ASC_NODE": 230.1202, "ARG_OF_PERICENTER": 109.6865, "MEAN_ANOMALY": 251.8715, "EPHEMERIS_TYPE": 0, "CLASSIFICATION_TYPE": "U", "NORAD_CAT_ID": 31431, "ELEMENT_SET_NO": 999, "REV_AT_EPOCH": 94460, "BSTAR": 0.0022798155, "MEAN_MOTION_DOT": 3.793e-05, "MEAN_MOTION_DDOT": 0}, "tle": {"line1": "1 31431U 99025BTT 25341.63222654  .00003793  00000+0  22798-2 0  9993", "line2": "2 31431  98.5386 230.1202 0133065 109.6865 251.8715 14.03044754944600"}}, "geometry": {"type": "Point", "coordinates": [-121.3728019129516, -33.47929081389791]}}, {"type": "Feature", "properties": {"norad_id": 31433, "name": "FENGYUN 1C DEB", "group": "fengyun-1c-debris", "lat": 80.26907147685101, "lon": -171.4383724928273, "alt_km": 752.7027857036383, "timestamp": "2025-12-10T14:53:37.373634+00:00", "meta": {"OBJECT_NAME": "FENGYUN 1C DEB", "OBJECT_ID": "1999-025BTV", "EPOCH": "2025-12-10T05:06:03.290112", "MEAN_MOTION": 14.25379283, "ECCENTRICITY": 0.01002746, "INCLINATION": 98.4097, "RA_OF_ASC_NODE": 247.7858, "ARG_OF_PERICENTER": 36.652, "MEAN_ANOMALY": 115.0039, "EPHEMERIS_TYPE": 0, "CLASSIFICATION_TYPE": "U", "NORAD_CAT_ID": 31433, "ELEMENT_SET_NO": 999, "REV_AT_EPOCH": 95516, "BSTAR": 0.0037305462, "MEAN_MOTION_DOT": 9.24e-05, "MEAN_MOTION_DDOT": 0}, "tle": {"line1": "1 31433U 99025BTV 25344.21253808  .00009240  00000+0  37305-2 0  9990", "line2": "2 31433  98.4097 247.7858 0100274  36.6520 115.0039 14.25379283955169"}}, "geometry": {"type": "Point", "coordinates": [-171.4383724928273, 80.26907147685101]}}, {"type": "Feature", "properties": {"norad_id": 31435, "name": "FENGYUN 1C DEB", "group": "fengyun-1c-debris", "lat": -50.30918790155584, "lon": 167.3377257013245, "alt_km": 776.9618397955956, "timestamp": "2025-12-10T14:53:37.373645+00:00", "meta": {"OBJECT_NAME": "FENGYUN 1C DEB", "OBJECT_ID": "1999-025BTX", "EPOCH": "2025-12-10T06:52:24.041568", "MEAN_MOTION": 14.53426627, "ECCENTRICITY": 0.0148912, "INCLINATION": 99.0366, "RA_OF_ASC_NODE": 155.9224, "ARG_OF_PERICENTER": 187.411, "MEAN_ANOMALY": 172.4884, "EPHEMERIS_TYPE": 0, "CLASSIFICATION_TYPE": "U", "NORAD_CAT_ID": 31435, "ELEMENT_SET_NO": 999, "REV_AT_EPOCH": 98337, "BSTAR": 0.00045384112, "MEAN_MOTION_DOT": 2.128e-05, "MEAN_MOTION_DDOT": 0}, "tle": {"line1": "1 31435U 99025BTX 25344.28638937  .00002128  00000+0  45384-3 0  9994", "line2": "2 31435  99.0366 155.9224 0148912 187.4110 172.4884 14.53426627983370"}}, "geometry": {"type": "Point", "coordinates": [167.3377257013245, -50.30918790155584]}}, {"type": "Feature", "properties": {"norad_id": 31436, "name": "FENGYUN 1C DEB", "group": "fengyun-1c-debris", "lat": -43.168108906032195, "lon": -154.2709157518971, "alt_km": 582.0419142884721, "timestamp": "2025-12-10T14:53:37.373654+00:00", "meta": {"OBJECT_NAME": "FENGYUN 1C DEB", "OBJECT_ID": "1999-025BTY", "EPOCH": "2025-12-08T13:28:51.661920", "MEAN_MOTION": 14.93022785, "ECCENTRICITY": 0.0044316, "INCLINATION": 98.882, "RA_OF_ASC_NODE": 194.9716, "ARG_OF_PERICENTER": 256.2521, "MEAN_ANOMALY": 159.099, "EPHEMERIS_TYPE": 0, "CLASSIFICATION_TYPE": "U", "NORAD_CAT_ID": 31436, "ELEMENT_SET_NO": 999, "REV_AT_EPOCH": 96814, "BSTAR": 0.005826, "MEAN_MOTION_DOT": 0.00062201, "MEAN_MOTION_DDOT": 0}, "tle": {"line1": "1 31436U 99025BTY 25342.56170905  .00062201  00000+0  58260-2 0  9994", "line2": "2 31436  98.8820 194.9716 0044316 256.2521 159.0990 14.93022785968144"}}, "geometry": {"type": "Point", "coordinates": [-154.2709157518971, -43.168108906032195]}}, {"type": "Feature", "properties": {"norad_id": 31437, "name": "FENGYUN 1C DEB", "group": "fengyun-1c-debris", "lat": -40.97113375381597, "lon": -122.18489041039179, "alt_km": 747.6767966395837, "timestamp": "2025-12-10T14:53:37.373663+00:00", "meta": {"OBJECT_NAME": "FENGYUN 1C DEB", "OBJECT_ID": "1999-025BTZ", "EPOCH": "2025-12-09T16:13:35.437440", "MEAN_MOTION": 14.42435333, "ECCENTRICITY": 0.00152593, "INCLINATION": 98.8621, "RA_OF_ASC_NODE": 64.6212, "ARG_OF_PERICENTER": 256.234, "MEAN_ANOMALY": 103.715, "EPHEMERIS_TYPE": 0, "CLASSIFICATION_TYPE": "U", "NORAD_CAT_ID": 31437, "ELEMENT_SET_NO": 999, "REV_AT_EPOCH": 96466, "BSTAR": 0.0034638241, "MEAN_MOTION_DOT": 0.00011452, "MEAN_MOTION_DDOT": 0}, "tle": {"line1": "1 31437U 99025BTZ 25343.67610460  .00011452  00000+0  34638-2 0  9998", "line2": "2 31437  98.8621  64.6212 0015259 256.2340 103.7150 14.42435333964669"}}, "geometry": {"type": "Point", "coordinates": [-122.18489041039179, -40.97113375381597]}}, {"type": "Feature", "properties": {"norad_id": 31439, "name": "FENGYUN 1C DEB", "group": "fengyun-1c-debris", "lat": 5.171689796888577, "lon": -10.101848574079966, "alt_km": 1006.8452450866107, "timestamp": "2025-12-10T14:53:37.373672+00:00", "meta": {"OBJECT_NAME": "FENGYUN 1C DEB", "OBJECT_ID": "1999-025BUB", "EPOCH": "2025-12-09T20:31:31.179936", "MEAN_MOTION": 13.95572848, "ECCENTRICITY": 0.01377713, "INCLINATION": 98.917, "RA_OF_ASC_NODE": 349.9717, "ARG_OF_PERICENTER": 169.7119, "MEAN_ANOMALY": 313.0615, "EPHEMERIS_TYPE": 0, "CLASSIFICATION_TYPE": "U", "NORAD_CAT_ID": 31439, "ELEMENT_SET_NO": 999, "REV_AT_EPOCH": 63192, "BSTAR": 0.00093637103, "MEAN_MOTION_DOT": 1.336e-05, "MEAN_MOTION_DDOT": 0}, "tle": {"line1": "1 31439U 99025BUB 25343.85522199  .00001336  00000+0  93637-3 0  9996", "line2": "2 31439  98.9170 349.9717 0137771 169.7119 313.0615 13.95572848631928"}}, "geometry": {"type": "Point", "coordinates": [-10.101848574079966, 5.171689796888577]}}, {"type": "Feature", "properties": {"norad_id": 31440, "name": "FENGYUN 1C DEB", "group": "fengyun-1c-debris", "lat": -6.6112536450510415, "lon": 73.60843857628514, "alt_km": 747.2093576584866, "timestamp": "2025-12-10T14:53:37.373681+00:00", "meta": {"OBJECT_NAME": "FENGYUN 1C DEB", "OBJECT_ID": "1999-025BUC", "EPOCH": "2025-12-10T04:53:44.091456", "MEAN_MOTION": 14.36653105, "ECCENTRICITY": 0.00366239, "INCLINATION": 98.7454, "RA_OF_ASC_NODE": 72.1632, "ARG_OF_PERICENTER": 350.2386, "MEAN_ANOMALY": 9.8084, "EPHEMERIS_TYPE": 0, "CLASSIFICATION_TYPE": "U", "NORAD_CAT_ID": 31440, "ELEMENT_SET_NO": 999, "REV_AT_EPOCH": 96289, "BSTAR": 0.0026511584, "MEAN_MOTION_DOT": 7.827e-05, "MEAN_MOTION_DDOT": 0}, "tle": {"line1": "1 31440U 99025BUC 25344.20398254  .00007827  00000+0  26512-2 0  9999", "line2": "2 31440  98.7454  72.1632 0036623 350.2386   9.8084 14.36653105962896"}}, "geometry": {"type": "Point", "coordinates": [73.60843857628514, -6.6112536450510415]}}, {"type": "Feature", "properties": {"norad_id": 31441, "name": "FENGYUN 1C DEB", "group": "fengyun-1c-debris", "lat": 56.04536510664037, "lon": -166.98898323411655, "alt_km": 620.6664278257858, "timestamp": "2025-12-10T14:53:37.373690+00:00", "meta": {"OBJECT_NAME": "FENGYUN 1C DEB", "OBJECT_ID": "1999-025BUD", "EPOCH": "2025-12-07T08:28:41.429856", "MEAN_MOTION": 14.7453624, "ECCENTRICITY": 0.01049906, "INCLINATION": 99.3118, "RA_OF_ASC_NODE": 203.3613, "ARG_OF_PERICENTER": 352.0587, "MEAN_ANOMALY": 7.8951, "EPHEMERIS_TYPE": 0, "CLASSIFICATION_TYPE": "U", "NORAD_CAT_ID": 31441, "ELEMENT_SET_NO": 999, "REV_AT_EPOCH": 64011, "BSTAR": 0.0080507132, "MEAN_MOTION_DOT": 0.0005895, "MEAN_MOTION_DDOT": 0}, "tle": {"line1": "1 31441U 99025BUD 25341.35325729  .00058950  00000+0  80507-2 0  9997", "line2": "2 31441  99.3118 203.3613 0104990 352.0587   7.8951 14.74536240640115"}}, "geometry": {"type": "Point", "coordinates": [-166.98898323411655, 56.04536510664037]}}, {"type": "Feature", "properties": {"norad_id": 31442, "name": "FENGYUN 1C DEB", "group": "fengyun-1c-debris", "lat": 3.742481926882415, "lon": 70.06473982555714, "alt_km": 726.1745151339137, "timestamp": "2025-12-10T14:53:37.373700+00:00", "meta": {"OBJECT_NAME": "FENGYUN 1C DEB", "OBJECT_ID": "1999-025BUE", "EPOCH": "2025-12-06T12:04:12.458208", "MEAN_MOTION": 14.33910903, "ECCENTRICITY": 0.00793626, "INCLINATION": 98.5308, "RA_OF_ASC_NODE": 66.5662, "ARG_OF_PERICENTER": 31.0829, "MEAN_ANOMALY": 329.5016, "EPHEMERIS_TYPE": 0, "CLASSIFICATION_TYPE": "U", "NORAD_CAT_ID": 31442, "ELEMENT_SET_NO": 999, "REV_AT_EPOCH": 97271, "BSTAR": 0.00066447514, "MEAN_MOTION_DOT": 1.875e-05, "MEAN_MOTION_DDOT": 0}, "tle": {"line1": "1 31442U 99025BUE 25340.50292197  .00001875  00000+0  66448-3 0  9999", "line2": "2 31442  98.5308  66.5662 0079362  31.0829 329.5016 14.33910903972715"}}, "geometry": {"type": "Point", "coordinates": [70.06473982555714, 3.742481926882415]}}]}